STARLINK-36466          
1 67358U 26003AA  26026.51649085  .00315049  00000+0  19697-2 0  9999
2 67358  42.9979 108.7582 0001203 195.6925 164.3907 15.75139795  2335
STARLINK-36499          
1 67359U 26003AB  26026.45274278  .00080914  00000+0  52474-3 0  9992
2 67359  42.9989 109.1405 0001279 277.9339  82.1385 15.75042565  2326
STARLINK-36469          
1 67360U 26003AC  26026.26213942 -.00033970  00000+0 -21845-3 0  9994
2 67360  42.9979 110.2910 0001254 188.9120 171.1727 15.75088956  2292
STARLINK-35306          
1 67361U 26003AD  26026.26182302  .00179768  00000+0  11474-2 0  9990
2 67361  42.9983 110.2873 0000999 255.5516 104.5243 15.75062420  2292
STARLINK-36428          
1 67362U 26003AE  26026.26148478  .00349422  00000+0  21782-2 0  9996
2 67362  42.9981 110.2846 0001002 282.8887  77.1870 15.75108337  2290
TWILIGHT A              
1 67363U 26004A   26026.48592276  .00004999  00000+0  56480-3 0  9992
2 67363  97.7997  27.3848 0007428 242.0529 117.9936 14.86927038  2211
TWILIGHT B              
1 67364U 26004B   26026.48510965  .00005751  00000+0  64690-3 0  9997
2 67364  97.8001  27.3857 0007272 236.8732 123.1786 14.87046111  2221
TWILIGHT C              
1 67365U 26004C   26026.41759387  .00006181  00000+0  69456-3 0  9997
2 67365  97.7977  27.3190 0006908 243.3447 116.7062 14.87062820  2213
TWILIGHT D              
1 67366U 26004D   26026.48454928  .00005295  00000+0  59567-3 0  9995
2 67366  97.8032  27.3878 0007403 229.7212 130.3358 14.87076625  2228
TWILIGHT E              
1 67367U 26004E   26026.48379664  .00007317  00000+0  81854-3 0  9990
2 67367  97.7964  27.3858 0006396 245.2375 114.8175 14.87185542  2226
TWILIGHT F              
1 67368U 26004F   26026.41610063  .00005496  00000+0  61598-3 0  9994
2 67368  97.8025  27.3235 0006789 231.8344 128.2261 14.87220476  2218
TWILIGHT G              
1 67369U 26004G   26026.48270768  .00004006  00000+0  45050-3 0  9997
2 67369  97.7954  27.3872 0005853 246.9887 113.0712 14.87240180  2224
