CCSDS_OMM_VERS = 2.0
CREATION_DATE  = 
ORIGINATOR     = 

OBJECT_NAME    = STARLINK-36466
OBJECT_ID      = 2026-003AA
CENTER_NAME    = EARTH
REF_FRAME      = TEME
TIME_SYSTEM    = UTC
MEAN_ELEMENT_THEORY = SGP/SGP4

EPOCH          = 2026-01-26T12:23:44.809440
MEAN_MOTION    = 15.75139795
ECCENTRICITY   = .0001203
INCLINATION    = 42.9979
RA_OF_ASC_NODE = 108.7582
ARG_OF_PERICENTER = 195.6925
MEAN_ANOMALY   = 164.3907

EPHEMERIS_TYPE = 0
CLASSIFICATION_TYPE = U
NORAD_CAT_ID   = 67358
ELEMENT_SET_NO = 999
REV_AT_EPOCH   = 233
BSTAR          = .19697E-2
MEAN_MOTION_DOT = .315049E-2
MEAN_MOTION_DDOT = 0

CCSDS_OMM_VERS = 2.0
CREATION_DATE  = 
ORIGINATOR     = 

OBJECT_NAME    = STARLINK-36499
OBJECT_ID      = 2026-003AB
CENTER_NAME    = EARTH
REF_FRAME      = TEME
TIME_SYSTEM    = UTC
MEAN_ELEMENT_THEORY = SGP/SGP4

EPOCH          = 2026-01-26T10:51:56.976192
MEAN_MOTION    = 15.75042565
ECCENTRICITY   = .0001279
INCLINATION    = 42.9989
RA_OF_ASC_NODE = 109.1405
ARG_OF_PERICENTER = 277.9339
MEAN_ANOMALY   = 82.1385

EPHEMERIS_TYPE = 0
CLASSIFICATION_TYPE = U
NORAD_CAT_ID   = 67359
ELEMENT_SET_NO = 999
REV_AT_EPOCH   = 232
BSTAR          = .52474E-3
MEAN_MOTION_DOT = .80914E-3
MEAN_MOTION_DDOT = 0

CCSDS_OMM_VERS = 2.0
CREATION_DATE  = 
ORIGINATOR     = 

OBJECT_NAME    = STARLINK-36469
OBJECT_ID      = 2026-003AC
CENTER_NAME    = EARTH
REF_FRAME      = TEME
TIME_SYSTEM    = UTC
MEAN_ELEMENT_THEORY = SGP/SGP4

EPOCH          = 2026-01-26T06:17:28.845888
MEAN_MOTION    = 15.75088956
ECCENTRICITY   = .0001254
INCLINATION    = 42.9979
RA_OF_ASC_NODE = 110.2910
ARG_OF_PERICENTER = 188.9120
MEAN_ANOMALY   = 171.1727

EPHEMERIS_TYPE = 0
CLASSIFICATION_TYPE = U
NORAD_CAT_ID   = 67360
ELEMENT_SET_NO = 999
REV_AT_EPOCH   = 229
BSTAR          = -.21845E-3
MEAN_MOTION_DOT = -.3397E-3
MEAN_MOTION_DDOT = 0

CCSDS_OMM_VERS = 2.0
CREATION_DATE  = 
ORIGINATOR     = 

OBJECT_NAME    = STARLINK-35306
OBJECT_ID      = 2026-003AD
CENTER_NAME    = EARTH
REF_FRAME      = TEME
TIME_SYSTEM    = UTC
MEAN_ELEMENT_THEORY = SGP/SGP4

EPOCH          = 2026-01-26T06:17:01.508928
MEAN_MOTION    = 15.75062420
ECCENTRICITY   = .0000999
INCLINATION    = 42.9983
RA_OF_ASC_NODE = 110.2873
ARG_OF_PERICENTER = 255.5516
MEAN_ANOMALY   = 104.5243

EPHEMERIS_TYPE = 0
CLASSIFICATION_TYPE = U
NORAD_CAT_ID   = 67361
ELEMENT_SET_NO = 999
REV_AT_EPOCH   = 229
BSTAR          = .11474E-2
MEAN_MOTION_DOT = .179768E-2
MEAN_MOTION_DDOT = 0

CCSDS_OMM_VERS = 2.0
CREATION_DATE  = 
ORIGINATOR     = 

OBJECT_NAME    = STARLINK-36428
OBJECT_ID      = 2026-003AE
CENTER_NAME    = EARTH
REF_FRAME      = TEME
TIME_SYSTEM    = UTC
MEAN_ELEMENT_THEORY = SGP/SGP4

EPOCH          = 2026-01-26T06:16:32.284992
MEAN_MOTION    = 15.75108337
ECCENTRICITY   = .0001002
INCLINATION    = 42.9981
RA_OF_ASC_NODE = 110.2846
ARG_OF_PERICENTER = 282.8887
MEAN_ANOMALY   = 77.1870

EPHEMERIS_TYPE = 0
CLASSIFICATION_TYPE = U
NORAD_CAT_ID   = 67362
ELEMENT_SET_NO = 999
REV_AT_EPOCH   = 229
BSTAR          = .21782E-2
MEAN_MOTION_DOT = .349422E-2
MEAN_MOTION_DDOT = 0

CCSDS_OMM_VERS = 2.0
CREATION_DATE  = 
ORIGINATOR     = 

OBJECT_NAME    = TWILIGHT A
OBJECT_ID      = 2026-004A
CENTER_NAME    = EARTH
REF_FRAME      = TEME
TIME_SYSTEM    = UTC
MEAN_ELEMENT_THEORY = SGP/SGP4

EPOCH          = 2026-01-26T11:39:43.726464
MEAN_MOTION    = 14.86927038
ECCENTRICITY   = .0007428
INCLINATION    = 97.7997
RA_OF_ASC_NODE = 27.3848
ARG_OF_PERICENTER = 242.0529
MEAN_ANOMALY   = 117.9936

EPHEMERIS_TYPE = 0
CLASSIFICATION_TYPE = U
NORAD_CAT_ID   = 67363
ELEMENT_SET_NO = 999
REV_AT_EPOCH   = 221
BSTAR          = .5648E-3
MEAN_MOTION_DOT = .4999E-4
MEAN_MOTION_DDOT = 0

CCSDS_OMM_VERS = 2.0
CREATION_DATE  = 
ORIGINATOR     = 

OBJECT_NAME    = TWILIGHT B
OBJECT_ID      = 2026-004B
CENTER_NAME    = EARTH
REF_FRAME      = TEME
TIME_SYSTEM    = UTC
MEAN_ELEMENT_THEORY = SGP/SGP4

EPOCH          = 2026-01-26T11:38:33.473760
MEAN_MOTION    = 14.87046111
ECCENTRICITY   = .0007272
INCLINATION    = 97.8001
RA_OF_ASC_NODE = 27.3857
ARG_OF_PERICENTER = 236.8732
MEAN_ANOMALY   = 123.1786

EPHEMERIS_TYPE = 0
CLASSIFICATION_TYPE = U
NORAD_CAT_ID   = 67364
ELEMENT_SET_NO = 999
REV_AT_EPOCH   = 222
BSTAR          = .6469E-3
MEAN_MOTION_DOT = .5751E-4
MEAN_MOTION_DDOT = 0

CCSDS_OMM_VERS = 2.0
CREATION_DATE  = 
ORIGINATOR     = 

OBJECT_NAME    = TWILIGHT C
OBJECT_ID      = 2026-004C
CENTER_NAME    = EARTH
REF_FRAME      = TEME
TIME_SYSTEM    = UTC
MEAN_ELEMENT_THEORY = SGP/SGP4

EPOCH          = 2026-01-26T10:01:20.110368
MEAN_MOTION    = 14.87062820
ECCENTRICITY   = .0006908
INCLINATION    = 97.7977
RA_OF_ASC_NODE = 27.3190
ARG_OF_PERICENTER = 243.3447
MEAN_ANOMALY   = 116.7062

EPHEMERIS_TYPE = 0
CLASSIFICATION_TYPE = U
NORAD_CAT_ID   = 67365
ELEMENT_SET_NO = 999
REV_AT_EPOCH   = 221
BSTAR          = .69456E-3
MEAN_MOTION_DOT = .6181E-4
MEAN_MOTION_DDOT = 0

CCSDS_OMM_VERS = 2.0
CREATION_DATE  = 
ORIGINATOR     = 

OBJECT_NAME    = TWILIGHT D
OBJECT_ID      = 2026-004D
CENTER_NAME    = EARTH
REF_FRAME      = TEME
TIME_SYSTEM    = UTC
MEAN_ELEMENT_THEORY = SGP/SGP4

EPOCH          = 2026-01-26T11:37:45.057792
MEAN_MOTION    = 14.87076625
ECCENTRICITY   = .0007403
INCLINATION    = 97.8032
RA_OF_ASC_NODE = 27.3878
ARG_OF_PERICENTER = 229.7212
MEAN_ANOMALY   = 130.3358

EPHEMERIS_TYPE = 0
CLASSIFICATION_TYPE = U
NORAD_CAT_ID   = 67366
ELEMENT_SET_NO = 999
REV_AT_EPOCH   = 222
BSTAR          = .59567E-3
MEAN_MOTION_DOT = .5295E-4
MEAN_MOTION_DDOT = 0

CCSDS_OMM_VERS = 2.0
CREATION_DATE  = 
ORIGINATOR     = 

OBJECT_NAME    = TWILIGHT E
OBJECT_ID      = 2026-004E
CENTER_NAME    = EARTH
REF_FRAME      = TEME
TIME_SYSTEM    = UTC
MEAN_ELEMENT_THEORY = SGP/SGP4

EPOCH          = 2026-01-26T11:36:40.029696
MEAN_MOTION    = 14.87185542
ECCENTRICITY   = .0006396
INCLINATION    = 97.7964
RA_OF_ASC_NODE = 27.3858
ARG_OF_PERICENTER = 245.2375
MEAN_ANOMALY   = 114.8175

EPHEMERIS_TYPE = 0
CLASSIFICATION_TYPE = U
NORAD_CAT_ID   = 67367
ELEMENT_SET_NO = 999
REV_AT_EPOCH   = 222
BSTAR          = .81854E-3
MEAN_MOTION_DOT = .7317E-4
MEAN_MOTION_DDOT = 0

CCSDS_OMM_VERS = 2.0
CREATION_DATE  = 
ORIGINATOR     = 

OBJECT_NAME    = TWILIGHT F
OBJECT_ID      = 2026-004F
CENTER_NAME    = EARTH
REF_FRAME      = TEME
TIME_SYSTEM    = UTC
MEAN_ELEMENT_THEORY = SGP/SGP4

EPOCH          = 2026-01-26T09:59:11.094432
MEAN_MOTION    = 14.87220476
ECCENTRICITY   = .0006789
INCLINATION    = 97.8025
RA_OF_ASC_NODE = 27.3235
ARG_OF_PERICENTER = 231.8344
MEAN_ANOMALY   = 128.2261

EPHEMERIS_TYPE = 0
CLASSIFICATION_TYPE = U
NORAD_CAT_ID   = 67368
ELEMENT_SET_NO = 999
REV_AT_EPOCH   = 221
BSTAR          = .61598E-3
MEAN_MOTION_DOT = .5496E-4
MEAN_MOTION_DDOT = 0

CCSDS_OMM_VERS = 2.0
CREATION_DATE  = 
ORIGINATOR     = 

OBJECT_NAME    = TWILIGHT G
OBJECT_ID      = 2026-004G
CENTER_NAME    = EARTH
REF_FRAME      = TEME
TIME_SYSTEM    = UTC
MEAN_ELEMENT_THEORY = SGP/SGP4

EPOCH          = 2026-01-26T11:35:05.943552
MEAN_MOTION    = 14.87240180
ECCENTRICITY   = .0005853
INCLINATION    = 97.7954
RA_OF_ASC_NODE = 27.3872
ARG_OF_PERICENTER = 246.9887
MEAN_ANOMALY   = 113.0712

EPHEMERIS_TYPE = 0
CLASSIFICATION_TYPE = U
NORAD_CAT_ID   = 67369
ELEMENT_SET_NO = 999
REV_AT_EPOCH   = 222
BSTAR          = .4505E-3
MEAN_MOTION_DOT = .4006E-4
MEAN_MOTION_DDOT = 0

